NORAD_CAT_ID,OBJECT_NAME,OBJECT_TYPE,EPOCH,MEAN_MOTION,ECCENTRICITY,INCLINATION,RA_OF_ASC_NODE,ARG_OF_PERICENTER,MEAN_ANOMALY,BSTAR,MEAN_MOTION_DOT,MEAN_MOTION_DDOT,TLE_LINE0,TLE_LINE1,TLE_LINE2,SEMIMAJOR_AXIS,PERIOD,APOGEE,PERIGEE,DECAYED
53554.0,STARLINK-4506,PAYLOAD,2023-05-22 05:52:03,15.08831357,9.27e-05,53.2166,334.0628,74.831,285.2784,8.7979e-06,-1.48e-06,0.0,0 STARLINK-4506,1 53554U 22101AD  23142.24448629 -.00000148  00000-0  87979-5 0  9998,2 53554  53.2166 334.0628 0000927  74.8310 285.2784 15.08831357 41950,6917.907,95.438,540.413,539.131,0.0
53554.0,STARLINK-4506,PAYLOAD,2023-05-22 15:24:22,15.08840491,9.2e-05,53.2167,332.2782,86.7651,273.3446,0.00016095,2.275e-05,0.0,0 STARLINK-4506,1 53554U 22101AD  23142.64192384  .00002275  00000-0  16095-3 0  9997,2 53554  53.2167 332.2782 0000920  86.7651 273.3446 15.08840491 42015,6917.879,95.438,540.38,539.107,0.0
53554.0,STARLINK-4506,PAYLOAD,2023-05-22 16:59:45,15.08843235,8.29e-05,53.2164,331.9816,84.0591,276.0496,0.00023588,3.469e-05,0.0,0 STARLINK-4506,1 53554U 22101AD  23142.70816347  .00003469  00000-0  23588-3 0  9997,2 53554  53.2164 331.9816 0000829  84.0591 276.0496 15.08843235 42023,6917.871,95.437,540.309,539.162,0.0
53554.0,STARLINK-4506,PAYLOAD,2023-05-23 02:32:04,15.08834827,8.19e-05,53.2145,330.1983,86.627,273.4816,0.00031394,4.711e-05,0.0,0 STARLINK-4506,1 53554U 22101AD  23143.10560908  .00004711  00000-0  31394-3 0  9996,2 53554  53.2145 330.1983 0000819  86.6270 273.4816 15.08834827 42089,6917.896,95.438,540.328,539.195,0.0
53554.0,STARLINK-4506,PAYLOAD,2023-05-23 18:25:55,15.0885426,8.24e-05,53.216,327.2232,77.0471,283.0613,0.0011953,0.00018794,0.0,0 STARLINK-4506,1 53554U 22101AD  23143.76800486  .00018794  00000-0  11953-2 0  9990,2 53554  53.2160 327.2232 0000824  77.0471 283.0613 15.08854260 42189,6917.837,95.437,540.272,539.132,0.0
53554.0,STARLINK-4506,PAYLOAD,2023-05-23 21:36:41,15.08858495,7.6e-05,53.2161,326.6282,77.0209,283.0868,0.00078882,0.00012295,0.0,0 STARLINK-4506,1 53554U 22101AD  23143.90048293  .00012295  00000-0  78882-3 0  9991,2 53554  53.2161 326.6282 0000760  77.0209 283.0868 15.08858495 42205,6917.824,95.436,540.215,539.163,0.0
53554.0,STARLINK-4506,PAYLOAD,2023-05-24 02:22:51,15.08840234,9.95e-05,53.2162,325.736,66.3997,293.71,0.00041267,6.286e-05,0.0,0 STARLINK-4506,1 53554U 22101AD  23144.09920607  .00006286  00000-0  41267-3 0  9990,2 53554  53.2162 325.7360 0000995  66.3997 293.7100 15.08840234 42230,6917.88,95.438,540.433,539.056,0.0
53554.0,STARLINK-4506,PAYLOAD,2023-05-24 15:05:56,15.08850783,8.24e-05,53.2161,323.3574,81.2761,278.8324,0.00059372,9.177e-05,0.0,0 STARLINK-4506,1 53554U 22101AD  23144.62912374  .00009177  00000-0  59372-3 0  9999,2 53554  53.2161 323.3574 0000824  81.2761 278.8324 15.08850783 42317,6917.847,95.437,540.282,539.142,0.0
53554.0,STARLINK-4506,PAYLOAD,2023-05-25 18:07:29,15.08853131,8.04e-05,53.2165,318.3021,77.487,282.6212,0.00061029,9.442e-05,0.0,0 STARLINK-4506,1 53554U 22101AD  23145.75520159  .00009442  00000-0  61029-3 0  9997,2 53554  53.2165 318.3021 0000804  77.4870 282.6212 15.08853131 42485,6917.84,95.437,540.261,539.149,0.0
53554.0,STARLINK-4506,PAYLOAD,2023-05-26 11:36:44,15.08840912,0.0001172,53.2165,315.0334,84.2527,275.8599,0.00018192,2.609e-05,0.0,0 STARLINK-4506,1 53554U 22101AD  23146.48384378  .00002609  00000-0  18192-3 0  9990,2 53554  53.2165 315.0334 0001172  84.2527 275.8599 15.08840912 42597,6917.878,95.437,540.553,538.932,0.0
53554.0,STARLINK-4506,PAYLOAD,2023-05-26 17:58:16,15.08838614,8.46e-05,53.2166,313.8421,86.0164,274.0925,5.1142e-05,5.26e-06,0.0,0 STARLINK-4506,1 53554U 22101AD  23146.74880536  .00000526  00000-0  51142-4 0  9995,2 53554  53.2166 313.8421 0000846  86.0164 274.0925 15.08838614 42630,6917.885,95.438,540.335,539.164,0.0
53554.0,STARLINK-4506,PAYLOAD,2023-05-26 21:09:03,15.08839299,8.6e-05,53.2166,313.2472,87.9621,272.147,5.4896e-05,5.86e-06,0.0,0 STARLINK-4506,1 53554U 22101AD  23146.88128473  .00000586  00000-0  54896-4 0  9990,2 53554  53.2166 313.2472 0000860  87.9621 272.1470 15.08839299 42650,6917.883,95.438,540.342,539.153,0.0
53554.0,STARLINK-4506,PAYLOAD,2023-05-27 17:49:03,15.08841739,7.98e-05,53.2165,309.3817,83.791,276.3173,6.0758e-05,6.79e-06,0.0,0 STARLINK-4506,1 53554U 22101AD  23147.74240501  .00000679  00000-0  60758-4 0  9990,2 53554  53.2165 309.3817 0000798  83.7910 276.3173 15.08841739 42785,6917.875,95.437,540.292,539.188,0.0
53554.0,STARLINK-4506,PAYLOAD,2023-05-28 03:21:22,15.08844404,7.13e-05,53.2165,307.5976,90.7433,269.3641,5.1924e-05,5.39e-06,0.0,0 STARLINK-4506,1 53554U 22101AD  23148.13984336  .00000539  00000-0  51924-4 0  9995,2 53554  53.2165 307.5976 0000713  90.7433 269.3641 15.08844404 42847,6917.867,95.437,540.225,539.239,0.0
53554.0,STARLINK-4506,PAYLOAD,2023-05-28 11:18:18,15.08836019,7.4e-05,53.2166,306.1107,97.1637,262.9439,0.00013308,1.831e-05,0.0,0 STARLINK-4506,1 53554U 22101AD  23148.47104883  .00001831  00000-0  13308-3 0  9992,2 53554  53.2166 306.1107 0000740  97.1637 262.9439 15.08836019 42898,6917.893,95.438,540.269,539.246,0.0
53554.0,STARLINK-4506,PAYLOAD,2023-05-28 17:39:50,15.08849554,9.73e-05,53.2165,304.9219,103.3861,256.724,6.6397e-05,7.69e-06,0.0,0 STARLINK-4506,1 53554U 22101AD  23148.73600226  .00000769  00000-0  66397-4 0  9999,2 53554  53.2165 304.9219 0000973 103.3861 256.7240 15.08849554 42938,6917.851,95.437,540.389,539.043,0.0
53554.0,STARLINK-4506,PAYLOAD,2023-05-29 03:12:09,15.08841474,6.85e-05,53.2154,303.1382,99.3234,260.7836,7.3834e-05,8.88e-06,0.0,0 STARLINK-4506,1 53554U 22101AD  23149.13344480  .00000888  00000-0  73834-4 0  9997,2 53554  53.2154 303.1382 0000685  99.3234 260.7836 15.08841474 42991,6917.876,95.437,540.215,539.267,0.0
53554.0,STARLINK-4506,PAYLOAD,2023-05-29 14:19:52,15.0883678,8.65e-05,53.2165,301.0569,104.7078,255.401,8.3888e-05,1.048e-05,0.0,0 STARLINK-4506,1 53554U 22101AD  23149.59713145  .00001048  00000-0  83888-4 0  9994,2 53554  53.2165 301.0569 0000865 104.7078 255.4010 15.08836780 43062,6917.89,95.438,540.354,539.157,0.0
53554.0,STARLINK-4506,PAYLOAD,2023-05-29 19:06:01,15.08842125,0.0001061,53.2164,300.1649,109.1819,250.9288,0.00013229,1.818e-05,0.0,0 STARLINK-4506,1 53554U 22101AD  23149.79584676  .00001818  00000-0  13229-3 0  9997,2 53554  53.2164 300.1649 0001061 109.1819 250.9288 15.08842125 43091,6917.874,95.437,540.473,539.005,0.0
53554.0,STARLINK-4506,PAYLOAD,2023-05-30 12:35:15,15.08847366,7.61e-05,53.2161,296.8939,105.9997,254.1079,-8.0919e-05,-1.575e-05,0.0,0 STARLINK-4506,1 53554U 22101AD  23150.52448908 -.00001575  00000-0 -80919-4 0  9990,2 53554  53.2161 296.8939 0000761 105.9997 254.1079 15.08847366 43207,6917.858,95.437,540.249,539.196,0.0
53554.0,STARLINK-4506,PAYLOAD,2023-05-30 18:56:48,15.08845914,7.57e-05,53.2165,295.7038,100.4216,259.6862,6.8468e-05,8.02e-06,0.0,0 STARLINK-4506,1 53554U 22101AD  23150.78944525  .00000802  00000-0  68468-4 0  9999,2 53554  53.2165 295.7038 0000757 100.4216 259.6862 15.08845914 43249,6917.862,95.437,540.251,539.204,0.0
53554.0,STARLINK-4506,PAYLOAD,2023-05-31 09:15:17,15.08824238,8.36e-05,53.2172,293.0254,98.0616,262.0471,0.00026657,3.955e-05,0.0,0 STARLINK-4506,1 53554U 22101AD  23151.38561503  .00003955  00000-0  26657-3 0  9992,2 53554  53.2172 293.0254 0000836  98.0616 262.0471 15.08824238 43332,6917.929,95.439,540.372,539.215,0.0
53554.0,STARLINK-4506,PAYLOAD,2023-05-31 14:01:25,15.08841057,6.87e-05,53.2167,292.1356,86.3224,273.7847,0.00011079,1.476e-05,0.0,0 STARLINK-4506,1 53554U 22101AD  23151.58432786  .00001476  00000-0  11079-3 0  9992,2 53554  53.2167 292.1356 0000687  86.3224 273.7847 15.08841057 43365,6917.877,95.437,540.217,539.267,0.0
53554.0,STARLINK-4506,PAYLOAD,2023-05-31 15:36:48,15.08847416,7.55e-05,53.2167,291.837,88.5668,271.5411,9.3934e-05,1.208e-05,0.0,0 STARLINK-4506,1 53554U 22101AD  23151.65056410  .00001208  00000-0  93934-4 0  9990,2 53554  53.2167 291.8370 0000755  88.5668 271.5411 15.08847416 43378,6917.858,95.437,540.245,539.2,0.0
53554.0,STARLINK-4506,PAYLOAD,2023-06-01 09:06:03,15.08836584,6.6e-05,53.2159,288.5676,94.9782,265.1285,5.1267e-05,5.28e-06,0.0,0 STARLINK-4506,1 53554U 22101AD  23152.37921079  .00000528  00000-0  51267-4 0  9999,2 53554  53.2159 288.5676 0000660  94.9782 265.1285 15.08836584 43488,6917.891,95.438,540.212,539.299,0.0
53554.0,STARLINK-4506,PAYLOAD,2023-06-02 13:43:00,15.08834066,7.89e-05,53.2171,283.2142,91.5971,268.5111,3.4404e-05,2.6e-06,0.0,0 STARLINK-4506,1 53554U 22101AD  23153.57153379  .00000260  00000-0  34404-4 0  9999,2 53554  53.2171 283.2142 0000789  91.5971 268.5111 15.08834066 43665,6917.899,95.438,540.309,539.218,0.0
53554.0,STARLINK-4506,PAYLOAD,2023-06-02 15:18:22,15.08867916,0.0001485,53.2172,282.9172,115.0045,245.1102,-0.00044309,-7.338e-05,0.0,0 STARLINK-4506,1 53554U 22101AD  23153.63776559 -.00007338  00000-0 -44309-3 0  9996,2 53554  53.2172 282.9172 0001485 115.0045 245.1102 15.08867916 43675,6917.795,95.436,540.687,538.633,0.0
53554.0,STARLINK-4506,PAYLOAD,2023-06-03 08:47:38,15.08836404,9.18e-05,53.2176,279.646,100.4303,259.6792,3.4913e-05,2.68e-06,0.0,0 STARLINK-4506,1 53554U 22101AD  23154.36641380  .00000268  00000-0  34913-4 0  9994,2 53554  53.2176 279.6460 0000918 100.4303 259.6792 15.08836404 43782,6917.891,95.438,540.391,539.121,0.0
53554.0,STARLINK-4506,PAYLOAD,2023-06-03 13:33:47,15.08837368,9.01e-05,53.2175,278.754,102.1575,257.9518,3.7692e-05,3.12e-06,0.0,0 STARLINK-4506,1 53554U 22101AD  23154.56513318  .00000312  00000-0  37692-4 0  9992,2 53554  53.2175 278.7540 0000901 102.1575 257.9518 15.08837368 43813,6917.888,95.438,540.377,539.13,0.0
53554.0,STARLINK-4506,PAYLOAD,2023-06-04 14:59:57,15.08838715,7.7e-05,53.2172,273.9972,102.7174,257.3905,8.8524e-05,1.121e-05,0.0,0 STARLINK-4506,1 53554U 22101AD  23155.62497313  .00001121  00000-0  88524-4 0  9995,2 53554  53.2172 273.9972 0000770 102.7174 257.3905 15.08838715 43979,6917.884,95.438,540.282,539.217,0.0
